NORAD_CAT_ID,OBJECT_NAME,OBJECT_TYPE,EPOCH,MEAN_MOTION,ECCENTRICITY,INCLINATION,RA_OF_ASC_NODE,ARG_OF_PERICENTER,MEAN_ANOMALY,BSTAR,MEAN_MOTION_DOT,MEAN_MOTION_DDOT,TLE_LINE0,TLE_LINE1,TLE_LINE2,SEMIMAJOR_AXIS,PERIOD,APOGEE,PERIGEE,DECAYED
52309.0,STARLINK-3756,PAYLOAD,2022-10-17 14:46:56,15.08838613,0.0001684,53.2185,251.5396,38.8349,321.2764,2.2627e-05,7.2e-07,0.0,0 STARLINK-3756,1 52309U 22041BA  22290.61593063  .00000072  00000-0  22627-4 0  9998,2 52309  53.2185 251.5396 0001684  38.8349 321.2764 15.08838613 28806,6917.885,95.438,540.915,538.585,0.0
52309.0,STARLINK-3756,PAYLOAD,2022-10-18 01:54:38,15.08884418,0.0002106999999999,53.215,249.459,44.7531,315.3631,-0.00066832,-0.00010922,0.0,0 STARLINK-3756,1 52309U 22041BA  22291.07960825 -.00010922  00000-0 -66832-3 0  9995,2 52309  53.2150 249.4590 0002107  44.7531 315.3631 15.08884418 28878,6917.745,95.435,541.067,538.1519999999998,0.0
52309.0,STARLINK-3756,PAYLOAD,2022-10-18 06:40:47,15.08864196,0.0001874,53.2175,248.5653,48.6008,311.5145,-0.00039373,-6.553e-05,0.0,0 STARLINK-3756,1 52309U 22041BA  22291.27832901 -.00006553  00000-0 -39373-3 0  9995,2 52309  53.2175 248.5653 0001874  48.6008 311.5145 15.08864196 28900,6917.806,95.436,540.9680000000002,538.375,0.0
52309.0,STARLINK-3756,PAYLOAD,2022-10-18 20:59:17,15.08826795,0.0001947,53.2175,245.8887,47.1422,312.9734,1.0529e-05,-1.21e-06,0.0,0 STARLINK-3756,1 52309U 22041BA  22291.87450595 -.00000121  00000-0  10529-4 0  9993,2 52309  53.2175 245.8887 0001947  47.1422 312.9734 15.08826795 28995,6917.920999999999,95.438,541.133,538.439,0.0
52309.0,STARLINK-3756,PAYLOAD,2022-10-19 03:20:49,15.08834196,0.000177,53.2167,244.6995,48.5749,311.5395,3.6429e-05,2.92e-06,0.0,0 STARLINK-3756,1 52309U 22041BA  22292.13946075  .00000292  00000-0  36429-4 0  9991,2 52309  53.2167 244.6995 0001770  48.5749 311.5395 15.08834196 29032,6917.898,95.438,540.988,538.539,0.0
52309.0,STARLINK-3756,PAYLOAD,2022-10-19 06:31:35,15.08836736,0.0001825,53.2168,244.1052,47.7295,312.3852,5.584899999999999e-05,6.01e-06,0.0,0 STARLINK-3756,1 52309U 22041BA  22292.27193913  .00000601  00000-0  55849-4 0  9992,2 52309  53.2168 244.1052 0001825  47.7295 312.3852 15.08836736 29051,6917.89,95.438,541.018,538.493,0.0
52309.0,STARLINK-3756,PAYLOAD,2022-10-19 14:28:31,15.08838096,0.0001833,53.2169,242.6183,48.135,311.9799,6.3296e-05,7.19e-06,0.0,0 STARLINK-3756,1 52309U 22041BA  22292.60313864  .00000719  00000-0  63296-4 0  9993,2 52309  53.2169 242.6183 0001833  48.1350 311.9799 15.08838096 29108,6917.886,95.438,541.019,538.4830000000002,0.0
52309.0,STARLINK-3756,PAYLOAD,2022-10-20 06:22:22,15.08840982,0.000186,53.2178,239.6451,48.1238,311.9912,0.00010176,1.332e-05,0.0,0 STARLINK-3756,1 52309U 22041BA  22293.26553661  .00001332  00000-0  10176-3 0  9997,2 52309  53.2178 239.6451 0001860  48.1238 311.9912 15.08840982 29202,6917.877,95.437,541.029,538.456,0.0
52309.0,STARLINK-3756,PAYLOAD,2022-10-21 03:02:24,15.08832687,0.0001875,53.2182,235.7795,51.728,308.388,-2.8061e-05,-7.35e-06,0.0,0 STARLINK-3756,1 52309U 22041BA  22294.12666793 -.00000735  00000-0 -28061-4 0  9995,2 52309  53.2182 235.7795 0001875  51.7280 308.3880 15.08832687 29339,6917.903,95.438,541.065,538.471,0.0
52309.0,STARLINK-3756,PAYLOAD,2022-10-21 06:13:10,15.08836657,0.0001834,53.2181,235.1847,47.1169,312.9977,-6.2678e-05,-1.285e-05,0.0,0 STARLINK-3756,1 52309U 22041BA  22294.25914669 -.00001285  00000-0 -62678-4 0  9990,2 52309  53.2181 235.1847 0001834  47.1169 312.9977 15.08836657 29351,6917.891,95.438,541.024,538.487,0.0
52309.0,STARLINK-3756,PAYLOAD,2022-10-22 04:28:33,15.08840184,0.0001784,53.2179,231.0228,48.339,311.7754,-2.9682e-05,-7.6e-06,0.0,0 STARLINK-3756,1 52309U 22041BA  22295.18650453 -.00000760  00000-0 -29682-4 0  9996,2 52309  53.2179 231.0228 0001784  48.3390 311.7754 15.08840184 29494,6917.88,95.438,540.979,538.511,0.0
52309.0,STARLINK-3756,PAYLOAD,2022-10-22 06:03:57,15.08841001,0.0001801,53.2176,230.7248,46.6268,313.4874,-2.4214e-05,-6.73e-06,0.0,0 STARLINK-3756,1 52309U 22041BA  22295.25274378 -.00000673  00000-0 -24214-4 0  9991,2 52309  53.2176 230.7248 0001801  46.6268 313.4874 15.08841001 29507,6917.877,95.437,540.988,538.496,0.0
52309.0,STARLINK-3756,PAYLOAD,2022-10-22 20:22:25,15.08838945,0.0001798,53.2176,228.0484,45.2309,314.8829,7.4145e-05,8.92e-06,0.0,0 STARLINK-3756,1 52309U 22041BA  22295.84890114  .00000892  00000-0  74145-4 0  9997,2 52309  53.2176 228.0484 0001798  45.2309 314.8829 15.08838945 29592,6917.884,95.438,540.992,538.505,0.0
52309.0,STARLINK-3756,PAYLOAD,2022-10-23 04:19:20,15.08845379,0.0001816,53.2177,226.5616,44.222,315.8917,0.00011582,1.556e-05,0.0,0 STARLINK-3756,1 52309U 22041BA  22296.18009555  .00001556  00000-0  11582-3 0  9999,2 52309  53.2177 226.5616 0001816  44.2220 315.8917 15.08845379 29649,6917.864000000001,95.437,540.985,538.4730000000002,0.0
52309.0,STARLINK-3756,PAYLOAD,2022-10-23 12:16:15,15.08846534,0.000183,53.2176,225.0748,44.4443,315.6696,0.00011043,1.47e-05,0.0,0 STARLINK-3756,1 52309U 22041BA  22296.51129378  .00001470  00000-0  11043-3 0  9999,2 52309  53.2176 225.0748 0001830  44.4443 315.6696 15.08846534 29694,6917.86,95.437,540.991,538.4590000000002,0.0
52309.0,STARLINK-3756,PAYLOAD,2022-10-23 18:37:47,15.08853909,0.000185,53.2177,223.885,43.6531,316.4607,0.00014007,1.943e-05,0.0,0 STARLINK-3756,1 52309U 22041BA  22296.77624586  .00001943  00000-0  14007-3 0  9996,2 52309  53.2177 223.8850 0001850  43.6531 316.4607 15.08853909 29736,6917.8380000000025,95.437,540.9830000000002,538.423,0.0
52309.0,STARLINK-3756,PAYLOAD,2022-10-24 05:45:29,15.0884772,0.0001875,53.2177,221.8037,43.9786,316.1355,7.3273e-05,8.78e-06,0.0,0 STARLINK-3756,1 52309U 22041BA  22297.23992846  .00000878  00000-0  73273-4 0  9992,2 52309  53.2177 221.8037 0001875  43.9786 316.1355 15.08847720 29802,6917.857,95.437,541.019,538.425,0.0
52309.0,STARLINK-3756,PAYLOAD,2022-10-24 18:28:37,15.08825373,0.0002394,53.2167,219.4237,48.3981,311.7216,-0.0001284,-2.331e-05,0.0,0 STARLINK-3756,1 52309U 22041BA  22297.76987370 -.00002331  00000-0 -12840-3 0  9996,2 52309  53.2167 219.4237 0002394  48.3981 311.7216 15.08825373 29884,6917.925,95.438,541.446,538.134,0.0
52309.0,STARLINK-3756,PAYLOAD,2022-10-25 04:00:56,15.08825432,0.0001724,53.2178,217.6371,50.582,309.5324,-0.00020568,-3.559e-05,0.0,0 STARLINK-3756,1 52309U 22041BA  22298.16731832 -.00003559  00000-0 -20568-3 0  9990,2 52309  53.2178 217.6371 0001724  50.5820 309.5324 15.08825432 29946,6917.925,95.438,540.9830000000002,538.597,0.0
52309.0,STARLINK-3756,PAYLOAD,2022-10-26 03:51:42,15.08842332,0.00021,53.2174,213.1818,48.8446,311.2727,9.9441e-06,-1.3e-06,0.0,0 STARLINK-3756,1 52309U 22041BA  22299.16090533 -.00000130  00000-0  99441-5 0  9996,2 52309  53.2174 213.1818 0002100  48.8446 311.2727 15.08842332 30095,6917.873000000001,95.437,541.191,538.286,0.0
52309.0,STARLINK-3756,PAYLOAD,2022-10-26 11:48:37,15.0884325,0.0002112999999999,53.2178,211.6941,49.8865,310.2312,8.8903e-05,1.127e-05,0.0,0 STARLINK-3756,1 52309U 22041BA  22299.49210281  .00001127  00000-0  88903-4 0  9992,2 52309  53.2178 211.6941 0002113  49.8865 310.2312 15.08843250 30144,6917.87,95.437,541.197,538.274,0.0
52309.0,STARLINK-3756,PAYLOAD,2022-10-27 03:42:29,15.08831384,0.0002112999999999,53.2168,208.7208,46.162,313.9546,0.00030717,4.603e-05,0.0,0 STARLINK-3756,1 52309U 22041BA  22300.15450684  .00004603  00000-0  30717-3 0  9992,2 52309  53.2168 208.7208 0002113  46.1620 313.9546 15.08831384 30240,6917.906999999997,95.438,541.2330000000002,538.31,0.0
52309.0,STARLINK-3756,PAYLOAD,2022-10-28 00:22:29,15.088524800000002,0.0001968,53.2167,204.8549,48.9516,311.1646,5.6635e-05,6.14e-06,0.0,0 STARLINK-3756,1 52309U 22041BA  22301.01561994  .00000614  00000-0  56635-4 0  9991,2 52309  53.2167 204.8549 0001968  48.9516 311.1646 15.08852480 30370,6917.842,95.437,541.069,538.346,0.0
52309.0,STARLINK-3756,PAYLOAD,2022-10-29 03:24:02,15.08849853,0.0002016,53.2175,199.7982,56.3555,303.7629,-8.7861e-05,-1.687e-05,0.0,0 STARLINK-3756,1 52309U 22041BA  22302.14169844 -.00001687  00000-0 -87861-4 0  9992,2 52309  53.2175 199.7982 0002016  56.3555 303.7629 15.08849853 30540,6917.85,95.437,541.11,538.321,0.0
52309.0,STARLINK-3756,PAYLOAD,2022-10-29 20:53:17,15.08840593,0.0001766,53.2185,196.5288,66.0253,294.0924,-2.2376e-05,-6.44e-06,0.0,0 STARLINK-3756,1 52309U 22041BA  22302.87033880 -.00000644  00000-0 -22376-4 0  9994,2 52309  53.2185 196.5288 0001766  66.0253 294.0924 15.08840593 30653,6917.879,95.438,540.965,538.5219999999998,0.0
52309.0,STARLINK-3756,PAYLOAD,2022-10-30 09:36:23,15.08832492,0.0001810999999999,53.2177,194.1501,57.8481,302.2687,-0.00012755,-2.317e-05,0.0,0 STARLINK-3756,1 52309U 22041BA  22303.40026830 -.00002317  00000-0 -12755-3 0  9999,2 52309  53.2177 194.1501 0001811  57.8481 302.2687 15.08832492 30734,6917.903,95.438,541.021,538.516,0.0
52309.0,STARLINK-3756,PAYLOAD,2022-10-30 17:33:18,15.08832138,0.0001806,53.2164,192.6602,47.0821,313.0322,-1.4385e-05,-5.17e-06,0.0,0 STARLINK-3756,1 52309U 22041BA  22303.73146554 -.00000517  00000-0 -14385-4 0  9993,2 52309  53.2164 192.6602 0001806  47.0821 313.0322 15.08832138 30786,6917.904,95.438,541.019,538.52,0.0
52309.0,STARLINK-3756,PAYLOAD,2022-10-31 03:05:37,15.08833113,0.0001825,53.217,190.8787,44.023,316.0908,-2.1176e-05,-6.25e-06,0.0,0 STARLINK-3756,1 52309U 22041BA  22304.12890749 -.00000625  00000-0 -21176-4 0  9995,2 52309  53.2170 190.8787 0001825  44.0230 316.0908 15.08833113 30843,6917.901,95.438,541.029,538.504,0.0
52309.0,STARLINK-3756,PAYLOAD,2022-11-01 09:17:57,15.08828216,0.0002052,53.2174,185.23,45.3642,314.7517,9.7409e-05,1.262e-05,0.0,0 STARLINK-3756,1 52309U 22041BA  22305.38747405  .00001262  00000-0  97409-4 0  9992,2 52309  53.2174 185.2300 0002052  45.3642 314.7517 15.08828216 31031,6917.916,95.438,541.201,538.362,0.0
